OBJECT_NAME,OBJECT_ID,EPOCH,MEAN_MOTION,ECCENTRICITY,INCLINATION,RA_OF_ASC_NODE,ARG_OF_PERICENTER,MEAN_ANOMALY,EPHEMERIS_TYPE,CLASSIFICATION_TYPE,NORAD_CAT_ID,ELEMENT_SET_NO,REV_AT_EPOCH,BSTAR,MEAN_MOTION_DOT,MEAN_MOTION_DDOT
TDRS 13,2017-047A,2026-07-06T06:53:38.978880,1.00272081,.0015008,3.4562,3.1761,110.0825,263.0194,0,U,42915,999,3254,0,-.86E-6,0
QZS-3 (MICHIBIKI-3),2017-048A,2026-07-06T05:50:25.687104,1.00263319,.00019495,0.0823,223.7891,242.0858,32.9239,0,U,42917,999,3245,0,-.334E-5,0
AMAZONAS 5,2017-053A,2026-07-06T06:39:40.319136,1.00270646,.00013706,0.0334,322.3456,111.5367,249.3067,0,U,42934,999,3223,0,-.268E-5,0
ASIASAT 9,2017-057A,2026-07-06T07:31:50.274048,1.00263270,.00023009,0.0469,65.5175,33.1435,60.7547,0,U,42942,999,3205,0,0,0
INTELSAT 37E (IS-37E),2017-059A,2026-07-06T01:43:55.430976,1.00272309,.00026872,0.0153,59.3797,46.8013,185.8685,0,U,42950,999,3225,0,-.126E-5,0
BSAT-4A,2017-059B,2026-07-06T05:45:33.654240,1.00273026,.00036915,0.0335,351.0183,85.7700,43.6569,0,U,42951,999,3199,0,-.336E-5,0
QZS-4 (MICHIBIKI-4),2017-062A,2026-07-05T07:36:43.259040,1.00293782,.074705,40.0986,343.2563,268.3572,284.3863,0,U,42965,999,3198,0,-.308E-5,0
SES-11 (ECHOSTAR 105),2017-063A,2026-07-06T06:27:04.027968,1.00271187,.00027484,0.0145,355.7190,110.5163,169.8372,0,U,42967,999,3191,0,-.75E-6,0
KOREASAT 5A,2017-067A,2026-07-06T05:46:26.069664,1.00272980,.0001059,0.0142,324.0811,131.5396,28.3606,0,U,42984,999,3172,0,-.344E-5,0
ALCOMSAT 1,2017-078A,2026-07-06T03:24:36.360864,1.00272667,.00023716,0.0222,87.2094,19.6191,203.6590,0,U,43039,999,3148,0,-.172E-5,0
SBIRS GEO-3 (USA 282),2018-009A,2026-07-06T04:28:52.698720,1.00272257,.00020146,2.1971,12.9467,91.0294,88.0221,0,U,43162,999,3103,0,.142E-5,0
AL YAH 3,2018-012A,2026-07-06T03:25:58.728576,1.00272346,.00037621,1.5976,82.8916,20.9610,211.6630,0,U,43174,999,3103,0,-.142E-5,0
SES-14,2018-012B,2026-07-06T05:00:45.447840,1.00271043,.00010863,0.0124,22.4907,80.0590,209.3378,0,U,43175,999,721,0,-.264E-5,0
GOES 17,2018-022A,2026-07-06T06:31:33.596832,1.00272256,.00006206,0.9826,85.4093,52.5833,154.6584,0,U,43226,999,3061,0,-.169E-5,0
HISPASAT 30W-6,2018-023A,2026-07-06T03:56:05.235072,1.00271198,.00055286,0.0415,46.0544,39.2572,227.8720,0,U,43228,999,3059,0,-.202E-5,0
SUPERBIRD-B3,2018-033A,2026-07-06T06:00:32.216832,1.00271452,.00012066,0.0321,276.9130,210.3859,49.0862,0,U,43271,999,3025,0,-.78E-6,0
HYLAS 4,2018-033B,2026-07-06T03:22:06.600288,1.00271063,.00010658,0.0171,334.9781,152.6348,173.5353,0,U,43272,999,3025,0,-.219E-5,0
IRNSS-1I,2018-035A,2026-07-04T23:41:13.357824,1.00278933,.0017781,28.7931,73.9207,182.3699,77.0399,0,U,43286,999,3025,0,.82E-6,0
USA 283,2018-036A,2026-07-01T11:14:42.491040,1.00269042,.0000064,0.0077,35.3198,9.2412,177.7500,0,U,43339,999,2543,0,0,0
COSMOS 2526,2018-037A,2026-07-05T00:45:45.009216,1.00274684,.0000723,0.0321,74.0261,193.2685,155.2272,0,U,43432,999,3013,0,-.331E-5,0
APSTAR-6C,2018-041A,2026-07-05T18:03:32.959584,1.00273505,.0000438,0.0340,317.9342,20.2607,350.4417,0,U,43450,999,2999,0,-.304E-5,0
BANGABANDHUSAT-1,2018-044A,2026-07-06T00:40:23.666880,1.00271154,.00018821,0.0343,93.5942,16.5675,303.0588,0,U,43463,999,2989,0,-.348E-5,0
SES-12,2018-049A,2026-07-06T02:16:07.343616,1.00272777,.00005692,0.0110,3.3556,256.7267,153.0355,0,U,43488,999,2960,0,-.255E-5,0
FENGYUN 2H,2018-050A,2026-07-06T00:29:02.255136,1.00268948,.00019075,3.0768,78.8602,122.2023,169.4681,0,U,43491,999,2962,0,-.115E-5,0
BEIDOU-2 IGSO-7,2018-057A,2026-07-01T21:23:21.693984,1.00246939,.01049468,55.1981,162.9292,237.8611,308.6338,0,U,43539,999,2927,0,-.33E-6,0
TELSTAR 19V,2018-059A,2026-07-06T03:47:12.204960,1.00270220,.00029976,0.0397,184.4933,301.2325,152.2137,0,U,43562,999,2933,0,-.265E-5,0
TELKOM 4 (MERAH PUTIH),2018-064A,2026-07-06T05:45:11.190240,1.00268502,.00016385,0.0186,38.3656,108.2894,331.8739,0,U,43587,999,2907,0,0,0
TELSTAR 18V,2018-069A,2026-07-06T04:10:54.422400,1.00272386,.00019262,0.0275,280.3330,179.6524,24.9148,0,U,43611,999,2883,0,-.279E-5,0
AZERSPACE 2 (IS-38),2018-074A,2026-07-06T05:26:57.935616,1.00269858,.00012961,0.0186,18.0978,95.5679,297.4035,0,U,43632,999,2863,0,0,0
HORIZONS-3E,2018-074B,2026-07-05T18:04:01.043040,1.00272989,.00006006,0.0303,236.7690,47.0369,79.9572,0,U,43633,999,2852,0,-.16E-6,0
AEHF-4 (USA 288),2018-079A,2026-07-06T06:37:33.021696,1.00266019,.0059604,1.4379,5.4919,355.1095,315.3922,0,U,43651,999,2848,0,-.26E-5,0
BEIDOU-3 G1,2018-085A,2026-07-06T06:00:02.265408,1.00273747,.00085468,2.9139,96.8716,353.6234,83.6711,0,U,43683,999,2825,0,-.95E-6,0
