TDRS 13                 
1 42915U 17047A   26187.28725670 -.00000086  00000+0  00000+0 0  9994
2 42915   3.4562   3.1761 0015008 110.0825 263.0194  1.00272081 32542
QZS-3 (MICHIBIKI-3)     
1 42917U 17048A   26187.24335286 -.00000334  00000+0  00000+0 0  9999
2 42917   0.0823 223.7891 0001949 242.0858  32.9239  1.00263319 32459
AMAZONAS 5              
1 42934U 17053A   26187.27754999 -.00000268  00000+0  00000+0 0  9999
2 42934   0.0334 322.3456 0001370 111.5367 249.3067  1.00270646 32231
ASIASAT 9               
1 42942U 17057A   26187.31377632  .00000000  00000+0  00000+0 0  9995
2 42942   0.0469  65.5175 0002300  33.1435  60.7547  1.00263270 32055
INTELSAT 37E (IS-37E)   
1 42950U 17059A   26187.07216934 -.00000126  00000+0  00000+0 0  9996
2 42950   0.0153  59.3797 0002687  46.8013 185.8685  1.00272309 32253
BSAT-4A                 
1 42951U 17059B   26187.23997285 -.00000336  00000+0  00000+0 0  9993
2 42951   0.0335 351.0183 0003691  85.7700  43.6569  1.00273026 31997
QZS-4 (MICHIBIKI-4)     
1 42965U 17062A   26186.31716735 -.00000308  00000+0  00000+0 0  9998
2 42965  40.0986 343.2563 0747050 268.3572 284.3863  1.00293782 31984
SES-11 (ECHOSTAR 105)   
1 42967U 17063A   26187.26879662 -.00000075  00000+0  00000+0 0  9996
2 42967   0.0145 355.7190 0002748 110.5163 169.8372  1.00271187 31915
KOREASAT 5A             
1 42984U 17067A   26187.24057951 -.00000344  00000+0  00000+0 0  9995
2 42984   0.0142 324.0811 0001059 131.5396  28.3606  1.00272980 31725
ALCOMSAT 1              
1 43039U 17078A   26187.14208751 -.00000172  00000+0  00000+0 0  9993
2 43039   0.0222  87.2094 0002371  19.6191 203.6590  1.00272667 31489
SBIRS GEO-3 (USA 282)   
1 43162U 18009A   26187.18672105  .00000142  00000+0  00000+0 0  9993
2 43162   2.1971  12.9467 0002014  91.0294  88.0221  1.00272257 31033
AL YAH 3                
1 43174U 18012A   26187.14304084 -.00000142  00000+0  00000+0 0  9995
2 43174   1.5976  82.8916 0003762  20.9610 211.6630  1.00272346 31030
SES-14                  
1 43175U 18012B   26187.20885935 -.00000264  00000+0  00000+0 0  9997
2 43175   0.0124  22.4907 0001086  80.0590 209.3378  1.00271043  7210
GOES 17                 
1 43226U 18022A   26187.27191663 -.00000169  00000+0  00000+0 0  9994
2 43226   0.9826  85.4093 0000620  52.5833 154.6584  1.00272256 30615
HISPASAT 30W-6          
1 43228U 18023A   26187.16394948 -.00000202  00000+0  00000+0 0  9994
2 43228   0.0415  46.0544 0005528  39.2572 227.8720  1.00271198 30596
SUPERBIRD-B3            
1 43271U 18033A   26187.25037288 -.00000078  00000+0  00000+0 0  9995
2 43271   0.0321 276.9130 0001206 210.3859  49.0862  1.00271452 30251
HYLAS 4                 
1 43272U 18033B   26187.14035417 -.00000219  00000+0  00000+0 0  9993
2 43272   0.0171 334.9781 0001065 152.6348 173.5353  1.00271063 30252
IRNSS-1I                
1 43286U 18035A   26185.98696016  .00000082  00000+0  00000+0 0  9995
2 43286  28.7931  73.9207 0017781 182.3699  77.0399  1.00278933 30253
USA 283                 
1 43339U 18036A   26182.46854735  .00000000  00000+0  00000+0 0  9999
2 43339   0.0077  35.3198 0000064   9.2412 177.7500  1.00269042 25430
COSMOS 2526             
1 43432U 18037A   26186.03177094 -.00000331  00000+0  00000+0 0  9995
2 43432   0.0321  74.0261 0000723 193.2685 155.2272  1.00274684 30133
APSTAR-6C               
1 43450U 18041A   26186.75246481 -.00000304  00000+0  00000+0 0  9996
2 43450   0.0340 317.9342 0000438  20.2607 350.4417  1.00273505 29992
BANGABANDHUSAT-1        
1 43463U 18044A   26187.02805170 -.00000348  00000+0  00000+0 0  9998
2 43463   0.0343  93.5942 0001882  16.5675 303.0588  1.00271154 29899
SES-12                  
1 43488U 18049A   26187.09452944 -.00000255  00000+0  00000+0 0  9991
2 43488   0.0110   3.3556 0000569 256.7267 153.0355  1.00272777 29600
FENGYUN 2H              
1 43491U 18050A   26187.02016499 -.00000115  00000+0  00000+0 0  9996
2 43491   3.0768  78.8602 0001907 122.2023 169.4681  1.00268948 29629
BEIDOU-2 IGSO-7         
1 43539U 18057A   26182.89122331 -.00000033  00000+0  00000+0 0  9998
2 43539  55.1981 162.9292 0104946 237.8611 308.6338  1.00246939 29273
TELSTAR 19V             
1 43562U 18059A   26187.15778015 -.00000265  00000+0  00000+0 0  9993
2 43562   0.0397 184.4933 0002997 301.2325 152.2137  1.00270220 29338
TELKOM 4 (MERAH PUTIH)  
1 43587U 18064A   26187.23971285  .00000000  00000+0  00000+0 0  9995
2 43587   0.0186  38.3656 0001638 108.2894 331.8739  1.00268502 29071
TELSTAR 18V             
1 43611U 18069A   26187.17424100 -.00000279  00000+0  00000+0 0  9999
2 43611   0.0275 280.3330 0001926 179.6524  24.9148  1.00272386 28830
AZERSPACE 2 (IS-38)     
1 43632U 18074A   26187.22705944  .00000000  00000+0  00000+0 0  9993
2 43632   0.0186  18.0978 0001296  95.5679 297.4035  1.00269858 28635
HORIZONS-3E             
1 43633U 18074B   26186.75278985 -.00000016  00000+0  00000+0 0  9999
2 43633   0.0303 236.7690 0000600  47.0369  79.9572  1.00272989 28529
AEHF-4 (USA 288)        
1 43651U 18079A   26187.27607664 -.00000260  00000+0  00000+0 0  9993
2 43651   1.4379   5.4919 0059604 355.1095 315.3922  1.00266019 28487
BEIDOU-3 G1             
1 43683U 18085A   26187.25002622 -.00000095  00000+0  00000+0 0  9992
2 43683   2.9139  96.8716 0008546 353.6234  83.6711  1.00273747 28250
